{"fetched_at":"2026-07-24T07:06:08.057Z","source":"https://celestrak.org/NORAD/elements/gp.php?GROUP=oneweb&FORMAT=JSON","constellation":"oneweb","records":[{"OBJECT_NAME":"ONEWEB-0229","OBJECT_ID":"2021-045N","EPOCH":"2026-07-23T13:39:45.406656","CLASSIFICATION_TYPE":"U","MEAN_MOTION":13.15548306,"ECCENTRICITY":0.0002013,"INCLINATION":87.8978,"RA_OF_ASC_NODE":251.9431,"ARG_OF_PERICENTER":100.6975,"MEAN_ANOMALY":259.4382,"EPHEMERIS_TYPE":0,"NORAD_CAT_ID":48779,"ELEMENT_SET_NO":999,"REV_AT_EPOCH":24919,"BSTAR":0.00012203,"MEAN_MOTION_DOT":5.9e-7,"MEAN_MOTION_DDOT":0},{"OBJECT_NAME":"ONEWEB-0228","OBJECT_ID":"2021-045P","EPOCH":"2026-07-23T08:59:17.079936","CLASSIFICATION_TYPE":"U","MEAN_MOTION":13.15549318,"ECCENTRICITY":0.0002133,"INCLINATION":87.8989,"RA_OF_ASC_NODE":251.9764,"ARG_OF_PERICENTER":98.5419,"MEAN_ANOMALY":261.5953,"EPHEMERIS_TYPE":0,"NORAD_CAT_ID":48780,"ELEMENT_SET_NO":999,"REV_AT_EPOCH":24908,"BSTAR":0.00021191,"MEAN_MOTION_DOT":9.3e-7,"MEAN_MOTION_DDOT":0},{"OBJECT_NAME":"ONEWEB-0232","OBJECT_ID":"2021-045Q","EPOCH":"2026-07-23T13:51:10.456704","CLASSIFICATION_TYPE":"U","MEAN_MOTION":13.15547649,"ECCENTRICITY":0.0002129,"INCLINATION":87.8985,"RA_OF_ASC_NODE":251.9364,"ARG_OF_PERICENTER":95.5824,"MEAN_ANOMALY":264.5549,"EPHEMERIS_TYPE":0,"NORAD_CAT_ID":48781,"ELEMENT_SET_NO":999,"REV_AT_EPOCH":24943,"BSTAR":0.00043395,"MEAN_MOTION_DOT":0.00000176,"MEAN_MOTION_DDOT":0},{"OBJECT_NAME":"ONEWEB-0231","OBJECT_ID":"2021-045R","EPOCH":"2026-07-23T09:40:10.644672","CLASSIFICATION_TYPE":"U","MEAN_MOTION":13.15547873,"ECCENTRICITY":0.0002274,"INCLINATION":87.8978,"RA_OF_ASC_NODE":251.982,"ARG_OF_PERICENTER":100.5588,"MEAN_ANOMALY":259.5799,"EPHEMERIS_TYPE":0,"NORAD_CAT_ID":48782,"ELEMENT_SET_NO":999,"REV_AT_EPOCH":24910,"BSTAR":0.000046256,"MEAN_MOTION_DOT":3e-7,"MEAN_MOTION_DDOT":0},{"OBJECT_NAME":"ONEWEB-0234","OBJECT_ID":"2021-045S","EPOCH":"2026-07-23T08:45:13.345920","CLASSIFICATION_TYPE":"U","MEAN_MOTION":13.15547633,"ECCENTRICITY":0.0002549,"INCLINATION":87.8992,"RA_OF_ASC_NODE":251.9726,"ARG_OF_PERICENTER":79.5485,"MEAN_ANOMALY":280.5933,"EPHEMERIS_TYPE":0,"NORAD_CAT_ID":48783,"ELEMENT_SET_NO":999,"REV_AT_EPOCH":24923,"BSTAR":0.00028486,"MEAN_MOTION_DOT":0.0000012,"MEAN_MOTION_DDOT":0},{"OBJECT_NAME":"ONEWEB-0238","OBJECT_ID":"2021-045T","EPOCH":"2026-07-23T03:17:01.054464","CLASSIFICATION_TYPE":"U","MEAN_MOTION":13.15548974,"ECCENTRICITY":0.00022549,"INCLINATION":87.8993,"RA_OF_ASC_NODE":252.0142,"ARG_OF_PERICENTER":85.9844,"MEAN_ANOMALY":274.1544,"EPHEMERIS_TYPE":0,"NORAD_CAT_ID":48784,"ELEMENT_SET_NO":999,"REV_AT_EPOCH":24910,"BSTAR":0.00022939168,"MEAN_MOTION_DOT":9.9e-7,"MEAN_MOTION_DDOT":0},{"OBJECT_NAME":"ONEWEB-0240","OBJECT_ID":"2021-045U","EPOCH":"2026-07-23T03:47:37.629888","CLASSIFICATION_TYPE":"U","MEAN_MOTION":13.1554973,"ECCENTRICITY":0.0002394,"INCLINATION":87.8985,"RA_OF_ASC_NODE":252.019,"ARG_OF_PERICENTER":98.2383,"MEAN_ANOMALY":261.9019,"EPHEMERIS_TYPE":0,"NORAD_CAT_ID":48785,"ELEMENT_SET_NO":999,"REV_AT_EPOCH":24913,"BSTAR":-0.00038868,"MEAN_MOTION_DOT":-0.00000133,"MEAN_MOTION_DDOT":0},{"OBJECT_NAME":"ONEWEB-0246","OBJECT_ID":"2021-045V","EPOCH":"2026-07-23T09:08:13.777728","CLASSIFICATION_TYPE":"U","MEAN_MOTION":13.1554835,"ECCENTRICITY":0.0002026,"INCLINATION":87.8988,"RA_OF_ASC_NODE":251.9788,"ARG_OF_PERICENTER":99.2133,"MEAN_ANOMALY":260.9227,"EPHEMERIS_TYPE":0,"NORAD_CAT_ID":48786,"ELEMENT_SET_NO":999,"REV_AT_EPOCH":24903,"BSTAR":-0.00010804,"MEAN_MOTION_DOT":-2.8e-7,"MEAN_MOTION_DDOT":0},{"OBJECT_NAME":"ONEWEB-0210","OBJECT_ID":"2021-045W","EPOCH":"2026-07-23T10:21:14.816736","CLASSIFICATION_TYPE":"U","MEAN_MOTION":13.15548022,"ECCENTRICITY":0.0002104,"INCLINATION":87.8986,"RA_OF_ASC_NODE":251.9658,"ARG_OF_PERICENTER":121.0264,"MEAN_ANOMALY":239.1073,"EPHEMERIS_TYPE":0,"NORAD_CAT_ID":48787,"ELEMENT_SET_NO":999,"REV_AT_EPOCH":24908,"BSTAR":0.00020195,"MEAN_MOTION_DOT":8.9e-7,"MEAN_MOTION_DDOT":0},{"OBJECT_NAME":"ONEWEB-0214","OBJECT_ID":"2021-045X","EPOCH":"2026-07-23T08:44:16.119744","CLASSIFICATION_TYPE":"U","MEAN_MOTION":13.15546668,"ECCENTRICITY":0.0001762,"INCLINATION":87.8988,"RA_OF_ASC_NODE":251.9762,"ARG_OF_PERICENTER":103.7226,"MEAN_ANOMALY":256.41,"EPHEMERIS_TYPE":0,"NORAD_CAT_ID":48788,"ELEMENT_SET_NO":999,"REV_AT_EPOCH":24904,"BSTAR":0.00021707,"MEAN_MOTION_DOT":9.5e-7,"MEAN_MOTION_DDOT":0},{"OBJECT_NAME":"ONEWEB-0221","OBJECT_ID":"2021-045Y","EPOCH":"2026-07-23T05:15:29.929824","CLASSIFICATION_TYPE":"U","MEAN_MOTION":13.1554781,"ECCENTRICITY":0.0002137,"INCLINATION":87.8986,"RA_OF_ASC_NODE":252.0131,"ARG_OF_PERICENTER":100.0908,"MEAN_ANOMALY":260.0463,"EPHEMERIS_TYPE":0,"NORAD_CAT_ID":48789,"ELEMENT_SET_NO":999,"REV_AT_EPOCH":24911,"BSTAR":0.000073646,"MEAN_MOTION_DOT":4.1e-7,"MEAN_MOTION_DDOT":0},{"OBJECT_NAME":"ONEWEB-0213","OBJECT_ID":"2021-045Z","EPOCH":"2026-07-23T04:59:31.249248","CLASSIFICATION_TYPE":"U","MEAN_MOTION":13.15548711,"ECCENTRICITY":0.0002155,"INCLINATION":87.8988,"RA_OF_ASC_NODE":252.0189,"ARG_OF_PERICENTER":104.9982,"MEAN_ANOMALY":255.1387,"EPHEMERIS_TYPE":0,"NORAD_CAT_ID":48790,"ELEMENT_SET_NO":999,"REV_AT_EPOCH":24917,"BSTAR":0.00015282,"MEAN_MOTION_DOT":7e-7,"MEAN_MOTION_DDOT":0},{"OBJECT_NAME":"ONEWEB-0212","OBJECT_ID":"2021-045AA","EPOCH":"2026-07-23T13:34:02.688096","CLASSIFICATION_TYPE":"U","MEAN_MOTION":13.1554726,"ECCENTRICITY":0.0002053,"INCLINATION":87.8981,"RA_OF_ASC_NODE":251.9416,"ARG_OF_PERICENTER":95.9312,"MEAN_ANOMALY":264.2052,"EPHEMERIS_TYPE":0,"NORAD_CAT_ID":48791,"ELEMENT_SET_NO":999,"REV_AT_EPOCH":24921,"BSTAR":0.000099937,"MEAN_MOTION_DOT":5e-7,"MEAN_MOTION_DDOT":0},{"OBJECT_NAME":"ONEWEB-0227","OBJECT_ID":"2021-045AB","EPOCH":"2026-07-23T13:32:52.869984","CLASSIFICATION_TYPE":"U","MEAN_MOTION":13.15557958,"ECCENTRICITY":0.00021,"INCLINATION":87.8988,"RA_OF_ASC_NODE":251.9421,"ARG_OF_PERICENTER":97.9418,"MEAN_ANOMALY":262.1951,"EPHEMERIS_TYPE":0,"NORAD_CAT_ID":48792,"ELEMENT_SET_NO":999,"REV_AT_EPOCH":24916,"BSTAR":-0.00090932,"MEAN_MOTION_DOT":-0.0000033,"MEAN_MOTION_DDOT":0},{"OBJECT_NAME":"ONEWEB-0226","OBJECT_ID":"2021-045AC","EPOCH":"2026-07-23T13:23:46.991328","CLASSIFICATION_TYPE":"U","MEAN_MOTION":13.15547728,"ECCENTRICITY":0.0002078,"INCLINATION":87.898,"RA_OF_ASC_NODE":251.9478,"ARG_OF_PERICENTER":103.9108,"MEAN_ANOMALY":256.2253,"EPHEMERIS_TYPE":0,"NORAD_CAT_ID":48793,"ELEMENT_SET_NO":999,"REV_AT_EPOCH":24913,"BSTAR":-0.000035496,"MEAN_MOTION_DOT":-1e-8,"MEAN_MOTION_DDOT":0},{"OBJECT_NAME":"ONEWEB-0224","OBJECT_ID":"2021-045AD","EPOCH":"2026-07-23T08:52:15.530880","CLASSIFICATION_TYPE":"U","MEAN_MOTION":13.15548845,"ECCENTRICITY":0.0002901,"INCLINATION":87.898,"RA_OF_ASC_NODE":252.0175,"ARG_OF_PERICENTER":90.1222,"MEAN_ANOMALY":270.0241,"EPHEMERIS_TYPE":0,"NORAD_CAT_ID":48794,"ELEMENT_SET_NO":999,"REV_AT_EPOCH":24903,"BSTAR":0.000021539,"MEAN_MOTION_DOT":2.1e-7,"MEAN_MOTION_DDOT":0}]}
